{"type": "FeatureCollection", "features": [ {"type": "Feature", "properties": {"norad_id": 66819, "name": "STARLINK-35989", "group": "last-30-days", "lat": 28.120635061963604, "lon": -48.15028494328048, "alt_km": 411.2966477117707, "timestamp": "2025-12-26T23:26:40.921716+00:00", "meta": {"OBJECT_NAME": "STARLINK-35989", "OBJECT_ID": "2025-278AE", "EPOCH": "2025-12-26T18:00:02.998944", "MEAN_MOTION": 15.50589023, "ECCENTRICITY": 0.0001352, "INCLINATION": 42.9998, "RA_OF_ASC_NODE": 168.1716, "ARG_OF_PERICENTER": 271.9172, "MEAN_ANOMALY": 36.6099, "EPHEMERIS_TYPE": 0, "CLASSIFICATION_TYPE": "U", "NORAD_CAT_ID": 66819, "ELEMENT_SET_NO": 999, "REV_AT_EPOCH": 521, "BSTAR": -0.001086, "MEAN_MOTION_DOT": -0.00063559, "MEAN_MOTION_DDOT": 0}, "tle": {"line1": "1 66819U 25278AE  25360.75003471 -.00063559  00000+0 -10860-2 0  9993", "line2": "2 66819  42.9998 168.1716 0001352 271.9172  36.6099 15.50589023  5212"}}, "geometry": {"type": "Point", "coordinates": [-48.15028494328048, 28.120635061963604]}}, {"type": "Feature", "properties": {"norad_id": 66820, "name": "KOMPSAT-7", "group": "last-30-days", "lat": 21.027312614944456, "lon": 129.5582463158761, "alt_km": 559.8461735089513, "timestamp": "2025-12-26T23:26:40.921725+00:00", "meta": {"OBJECT_NAME": "KOMPSAT-7", "OBJECT_ID": "2025-279A", "EPOCH": "2025-12-26T14:44:20.116608", "MEAN_MOTION": 15.00851437, "ECCENTRICITY": 0.00099888, "INCLINATION": 97.6455, "RA_OF_ASC_NODE": 306.2415, "ARG_OF_PERICENTER": 210.75, "MEAN_ANOMALY": 149.314, "EPHEMERIS_TYPE": 0, "CLASSIFICATION_TYPE": "U", "NORAD_CAT_ID": 66820, "ELEMENT_SET_NO": 999, "REV_AT_EPOCH": 373, "BSTAR": 0.00024502475, "MEAN_MOTION_DOT": 3.059e-05, "MEAN_MOTION_DDOT": 0}, "tle": {"line1": "1 66820U 25279A   25360.61412172  .00003059  00000+0  24502-3 0  9999", "line2": "2 66820  97.6455 306.2415 0009988 210.7500 149.3140 15.00851437  3739"}}, "geometry": {"type": "Point", "coordinates": [129.5582463158761, 21.027312614944456]}}, {"type": "Feature", "properties": {"norad_id": 66821, "name": "STARLINK-35966", "group": "last-30-days", "lat": -3.692278091620593, "lon": 158.0743974834887, "alt_km": 412.29374890656527, "timestamp": "2025-12-26T23:26:40.921740+00:00", "meta": {"OBJECT_NAME": "STARLINK-35966", "OBJECT_ID": "2025-280A", "EPOCH": "2025-12-26T08:00:01.000224", "MEAN_MOTION": 15.52498141, "ECCENTRICITY": 0.000321, "INCLINATION": 70.0004, "RA_OF_ASC_NODE": 161.183, "ARG_OF_PERICENTER": 267.437, "MEAN_ANOMALY": 93.1401, "EPHEMERIS_TYPE": 0, "CLASSIFICATION_TYPE": "U", "NORAD_CAT_ID": 66821, "ELEMENT_SET_NO": 999, "REV_AT_EPOCH": 508, "BSTAR": 0.00036399, "MEAN_MOTION_DOT": 0.00022271, "MEAN_MOTION_DDOT": 0}, "tle": {"line1": "1 66821U 25280A   25360.33334491  .00022271  00000+0  36399-3 0  9992", "line2": "2 66821  70.0004 161.1830 0003210 267.4370  93.1401 15.52498141  5082"}}, "geometry": {"type": "Point", "coordinates": [158.0743974834887, -3.692278091620593]}}, {"type": "Feature", "properties": {"norad_id": 66822, "name": "STARLINK-35958", "group": "last-30-days", "lat": -1.4436912214740423, "lon": 158.8937345977871, "alt_km": 411.45014430844185, "timestamp": "2025-12-26T23:26:40.921751+00:00", "meta": {"OBJECT_NAME": "STARLINK-35958", "OBJECT_ID": "2025-280B", "EPOCH": "2025-12-25T21:09:55.876608", "MEAN_MOTION": 15.52524711, "ECCENTRICITY": 0.0003381, "INCLINATION": 70.0003, "RA_OF_ASC_NODE": 162.418, "ARG_OF_PERICENTER": 268.924, "MEAN_ANOMALY": 91.156, "EPHEMERIS_TYPE": 0, "CLASSIFICATION_TYPE": "U", "NORAD_CAT_ID": 66822, "ELEMENT_SET_NO": 999, "REV_AT_EPOCH": 497, "BSTAR": 0.0016095, "MEAN_MOTION_DOT": 0.00100126, "MEAN_MOTION_DDOT": 0}, "tle": {"line1": "1 66822U 25280B   25359.88189672  .00100126  00000+0  16095-2 0  9996", "line2": "2 66822  70.0003 162.4180 0003381 268.9240  91.1560 15.52524711  4979"}}, "geometry": {"type": "Point", "coordinates": [158.8937345977871, -1.4436912214740423]}}, {"type": "Feature", "properties": {"norad_id": 66823, "name": "STARLINK-35957", "group": "last-30-days", "lat": -0.039975238884930826, "lon": 159.4017374858118, "alt_km": 411.3586796483132, "timestamp": "2025-12-26T23:26:40.921760+00:00", "meta": {"OBJECT_NAME": "STARLINK-35957", "OBJECT_ID": "2025-280C", "EPOCH": "2025-12-26T17:15:35.269344", "MEAN_MOTION": 15.52571809, "ECCENTRICITY": 0.0003327, "INCLINATION": 70.0006, "RA_OF_ASC_NODE": 160.1219, "ARG_OF_PERICENTER": 277.5481, "MEAN_ANOMALY": 82.5328, "EPHEMERIS_TYPE": 0, "CLASSIFICATION_TYPE": "U", "NORAD_CAT_ID": 66823, "ELEMENT_SET_NO": 999, "REV_AT_EPOCH": 510, "BSTAR": 0.00077124, "MEAN_MOTION_DOT": 0.00047656, "MEAN_MOTION_DDOT": 0}, "tle": {"line1": "1 66823U 25280C   25360.71915821  .00047656  00000+0  77124-3 0  9993", "line2": "2 66823  70.0006 160.1219 0003327 277.5481  82.5328 15.52571809  5106"}}, "geometry": {"type": "Point", "coordinates": [159.4017374858118, -0.039975238884930826]}}, {"type": "Feature", "properties": {"norad_id": 66824, "name": "STARLINK-35896", "group": "last-30-days", "lat": 1.757784239906623, "lon": 160.05462740135997, "alt_km": 411.52894680728605, "timestamp": "2025-12-26T23:26:40.921769+00:00", "meta": {"OBJECT_NAME": "STARLINK-35896", "OBJECT_ID": "2025-280D", "EPOCH": "2025-12-26T17:15:04.889376", "MEAN_MOTION": 15.52516409, "ECCENTRICITY": 0.0003202, "INCLINATION": 70.0004, "RA_OF_ASC_NODE": 160.1207, "ARG_OF_PERICENTER": 273.2862, "MEAN_ANOMALY": 86.7958, "EPHEMERIS_TYPE": 0, "CLASSIFICATION_TYPE": "U", "NORAD_CAT_ID": 66824, "ELEMENT_SET_NO": 999, "REV_AT_EPOCH": 510, "BSTAR": 0.00074461, "MEAN_MOTION_DOT": 0.00045901, "MEAN_MOTION_DDOT": 0}, "tle": {"line1": "1 66824U 25280D   25360.71880659  .00045901  00000+0  74461-3 0  9996", "line2": "2 66824  70.0004 160.1207 0003202 273.2862  86.7958 15.52516409  5100"}}, "geometry": {"type": "Point", "coordinates": [160.05462740135997, 1.757784239906623]}}, {"type": "Feature", "properties": {"norad_id": 66825, "name": "STARLINK-35476", "group": "last-30-days", "lat": 3.574158322985628, "lon": 160.7147160139053, "alt_km": 410.95838286344406, "timestamp": "2025-12-26T23:26:40.921778+00:00", "meta": {"OBJECT_NAME": "STARLINK-35476", "OBJECT_ID": "2025-280E", "EPOCH": "2025-12-26T17:14:35.392416", "MEAN_MOTION": 15.52526366, "ECCENTRICITY": 0.0003567, "INCLINATION": 70.0005, "RA_OF_ASC_NODE": 160.1186, "ARG_OF_PERICENTER": 279.8402, "MEAN_ANOMALY": 80.2382, "EPHEMERIS_TYPE": 0, "CLASSIFICATION_TYPE": "U", "NORAD_CAT_ID": 66825, "ELEMENT_SET_NO": 999, "REV_AT_EPOCH": 510, "BSTAR": 0.0017921, "MEAN_MOTION_DOT": 0.00111677, "MEAN_MOTION_DDOT": 0}, "tle": {"line1": "1 66825U 25280E   25360.71846519  .00111677  00000+0  17921-2 0  9995", "line2": "2 66825  70.0005 160.1186 0003567 279.8402  80.2382 15.52526366  5107"}}, "geometry": {"type": "Point", "coordinates": [160.7147160139053, 3.574158322985628]}}, {"type": "Feature", "properties": {"norad_id": 66826, "name": "STARLINK-35898", "group": "last-30-days", "lat": 5.233761547870765, "lon": 161.3210926029924, "alt_km": 411.23545338521035, "timestamp": "2025-12-26T23:26:40.921787+00:00", "meta": {"OBJECT_NAME": "STARLINK-35898", "OBJECT_ID": "2025-280F", "EPOCH": "2025-12-26T17:14:08.039040", "MEAN_MOTION": 15.5253895, "ECCENTRICITY": 0.0002989, "INCLINATION": 70.0004, "RA_OF_ASC_NODE": 160.1175, "ARG_OF_PERICENTER": 269.7035, "MEAN_ANOMALY": 90.381, "EPHEMERIS_TYPE": 0, "CLASSIFICATION_TYPE": "U", "NORAD_CAT_ID": 66826, "ELEMENT_SET_NO": 999, "REV_AT_EPOCH": 510, "BSTAR": 0.00086074, "MEAN_MOTION_DOT": 0.00053177, "MEAN_MOTION_DDOT": 0}, "tle": {"line1": "1 66826U 25280F   25360.71814860  .00053177  00000+0  86074-3 0  9996", "line2": "2 66826  70.0004 160.1175 0002989 269.7035  90.3810 15.52538950  5102"}}, "geometry": {"type": "Point", "coordinates": [161.3210926029924, 5.233761547870765]}}, {"type": "Feature", "properties": {"norad_id": 66827, "name": "STARLINK-35959", "group": "last-30-days", "lat": 7.09640478850623, "lon": 162.00584958856427, "alt_km": 410.85760697965816, "timestamp": "2025-12-26T23:26:40.921795+00:00", "meta": {"OBJECT_NAME": "STARLINK-35959", "OBJECT_ID": "2025-280G", "EPOCH": "2025-12-26T17:13:37.227072", "MEAN_MOTION": 15.52523392, "ECCENTRICITY": 0.0003356, "INCLINATION": 70.0005, "RA_OF_ASC_NODE": 160.1163, "ARG_OF_PERICENTER": 275.6861, "MEAN_ANOMALY": 84.3943, "EPHEMERIS_TYPE": 0, "CLASSIFICATION_TYPE": "U", "NORAD_CAT_ID": 66827, "ELEMENT_SET_NO": 999, "REV_AT_EPOCH": 510, "BSTAR": 0.0011686, "MEAN_MOTION_DOT": 0.00072398, "MEAN_MOTION_DDOT": 0}, "tle": {"line1": "1 66827U 25280G   25360.71779198  .00072398  00000+0  11686-2 0  9993", "line2": "2 66827  70.0005 160.1163 0003356 275.6861  84.3943 15.52523392  5107"}}, "geometry": {"type": "Point", "coordinates": [162.00584958856427, 7.09640478850623]}}, {"type": "Feature", "properties": {"norad_id": 66828, "name": "STARLINK-35982", "group": "last-30-days", "lat": 10.758012800662218, "lon": 163.37026056744844, "alt_km": 410.2952617997371, "timestamp": "2025-12-26T23:26:40.921804+00:00", "meta": {"OBJECT_NAME": "STARLINK-35982", "OBJECT_ID": "2025-280H", "EPOCH": "2025-12-26T17:12:37.359648", "MEAN_MOTION": 15.5255008, "ECCENTRICITY": 0.0003403, "INCLINATION": 70.0004, "RA_OF_ASC_NODE": 160.1133, "ARG_OF_PERICENTER": 277.6573, "MEAN_ANOMALY": 82.4227, "EPHEMERIS_TYPE": 0, "CLASSIFICATION_TYPE": "U", "NORAD_CAT_ID": 66828, "ELEMENT_SET_NO": 999, "REV_AT_EPOCH": 510, "BSTAR": 0.001475, "MEAN_MOTION_DOT": 0.0009173, "MEAN_MOTION_DDOT": 0}, "tle": {"line1": "1 66828U 25280H   25360.71709907  .00091730  00000+0  14750-2 0  9991", "line2": "2 66828  70.0004 160.1133 0003403 277.6573  82.4227 15.52550080  5107"}}, "geometry": {"type": "Point", "coordinates": [163.37026056744844, 10.758012800662218]}}]}